start=new Date('2022-10-17T00:00:00.000Z').valueOf();
sats=[{"FILE":"3617955","TLE_LINE1":"1 47158U 20088AN  22289.78399763  .00002049  00000-0  15643-3 0  9995","NORAD_CAT_ID":"47158","ELEMENT_SET_NO":"999","CLASSIFICATION_TYPE":"U","SITE":"AFETR","SEMIMAJOR_AXIS":"6925.341","APOAPSIS":"548.174","ECCENTRICITY":"0.00013980","MEAN_ELEMENT_THEORY":"SGP4","CENTER_NAME":"EARTH","REV_AT_EPOCH":"10509","COUNTRY_CODE":"US","MEAN_ANOMALY":"266.2415","MEAN_MOTION_DDOT":"0.0000000000000","REF_FRAME":"TEME","RCS_SIZE":"LARGE","OBJECT_ID":"2020-088AN","TIME_SYSTEM":"UTC","INCLINATION":"53.0551","OBJECT_NAME":"STARLINK-1873","GP_ID":"215345440","PERIOD":"95.592","RA_OF_ASC_NODE":"97.7816","BSTAR":"0.00015643000000","ARG_OF_PERICENTER":"93.8734","EPOCH":"2022-10-16T18:48:57.395232","TLE_LINE2":"2 47158  53.0551  97.7816 0001398  93.8734 266.2415 15.06402493105094","OBJECT_TYPE":"PAYLOAD","PERIAPSIS":"546.238","EPHEMERIS_TYPE":"0","MEAN_MOTION_DOT":"0.00002049","MEAN_MOTION":"15.06402493","DECAY_DATE":null,"LAUNCH_DATE":"2020-11-25"},{"TLE_LINE2":"2 47161  53.0541  97.9206 0001543  94.9733 265.1432 15.06400660105096","OBJECT_TYPE":"PAYLOAD","PERIAPSIS":"546.143","EPHEMERIS_TYPE":"0","MEAN_MOTION_DOT":"0.00000459","MEAN_MOTION":"15.06400660","DECAY_DATE":null,"LAUNCH_DATE":"2020-11-25","INCLINATION":"53.0541","OBJECT_NAME":"STARLINK-1876","GP_ID":"215346691","PERIOD":"95.592","RA_OF_ASC_NODE":"97.9206","BSTAR":"0.00004968000000","ARG_OF_PERICENTER":"94.9733","EPOCH":"2022-10-16T18:01:10.679520","CENTER_NAME":"EARTH","REV_AT_EPOCH":"10509","COUNTRY_CODE":"US","MEAN_ANOMALY":"265.1432","MEAN_MOTION_DDOT":"0.0000000000000","RCS_SIZE":"LARGE","REF_FRAME":"TEME","OBJECT_ID":"2020-088AR","TIME_SYSTEM":"UTC","FILE":"3617955","TLE_LINE1":"1 47161U 20088AR  22289.75081805  .00000459  00000-0  49680-4 0  9993","ELEMENT_SET_NO":"999","NORAD_CAT_ID":"47161","CLASSIFICATION_TYPE":"U","SEMIMAJOR_AXIS":"6925.347","SITE":"AFETR","APOAPSIS":"548.280","ECCENTRICITY":"0.00015430","MEAN_ELEMENT_THEORY":"SGP4"},{"EPHEMERIS_TYPE":"0","OBJECT_TYPE":"PAYLOAD","PERIAPSIS":"546.243","TLE_LINE2":"2 47162  53.0541 107.6543 0001371 105.8179 254.2961 15.06406956105219","LAUNCH_DATE":"2020-11-25","DECAY_DATE":null,"MEAN_MOTION":"15.06406956","MEAN_MOTION_DOT":"0.00000959","PERIOD":"95.592","OBJECT_NAME":"STARLINK-1877","GP_ID":"215319865","INCLINATION":"53.0541","EPOCH":"2022-10-16T19:30:04.979232","BSTAR":"0.00008324200000","ARG_OF_PERICENTER":"105.8179","RA_OF_ASC_NODE":"107.6543","COUNTRY_CODE":"US","REV_AT_EPOCH":"10521","CENTER_NAME":"EARTH","TIME_SYSTEM":"UTC","OBJECT_ID":"2020-088AS","REF_FRAME":"TEME","RCS_SIZE":"LARGE","MEAN_MOTION_DDOT":"0.0000000000000","MEAN_ANOMALY":"254.2961","SITE":"AFETR","SEMIMAJOR_AXIS":"6925.327","CLASSIFICATION_TYPE":"U","ELEMENT_SET_NO":"999","NORAD_CAT_ID":"47162","TLE_LINE1":"1 47162U 20088AS  22289.81255763  .00000959  00000-0  83242-4 0  9994","FILE":"3617708","MEAN_ELEMENT_THEORY":"SGP4","ECCENTRICITY":"0.00013710","APOAPSIS":"548.142"},{"INCLINATION":"53.0567","OBJECT_NAME":"STARLINK-1878","GP_ID":"215319867","PERIOD":"95.593","RA_OF_ASC_NODE":"117.5009","ARG_OF_PERICENTER":"133.5198","BSTAR":"-0.00000154480000","EPOCH":"2022-10-16T20:16:32.923200","TLE_LINE2":"2 47163  53.0567 117.5009 0001444 133.5198 226.5911 15.06386048105075","PERIAPSIS":"546.256","OBJECT_TYPE":"PAYLOAD","EPHEMERIS_TYPE":"0","MEAN_MOTION_DOT":"-0.00000304","MEAN_MOTION":"15.06386048","DECAY_DATE":null,"LAUNCH_DATE":"2020-11-25","FILE":"3617708","TLE_LINE1":"1 47163U 20088AT  22289.84482550 -.00000304  00000-0 -15448-5 0  9994","NORAD_CAT_ID":"47163","ELEMENT_SET_NO":"999","CLASSIFICATION_TYPE":"U","SITE":"AFETR","SEMIMAJOR_AXIS":"6925.391","APOAPSIS":"548.256","ECCENTRICITY":"0.00014440","MEAN_ELEMENT_THEORY":"SGP4","CENTER_NAME":"EARTH","REV_AT_EPOCH":"10507","COUNTRY_CODE":"US","MEAN_ANOMALY":"226.5911","MEAN_MOTION_DDOT":"0.0000000000000","RCS_SIZE":"LARGE","REF_FRAME":"TEME","OBJECT_ID":"2020-088AT","TIME_SYSTEM":"UTC"},{"ECCENTRICITY":"0.00013250","APOAPSIS":"548.130","MEAN_ELEMENT_THEORY":"SGP4","NORAD_CAT_ID":"47164","ELEMENT_SET_NO":"999","TLE_LINE1":"1 47164U 20088AU  22289.76648216  .00000400  00000-0  45764-4 0  9997","FILE":"3617955","SITE":"AFETR","SEMIMAJOR_AXIS":"6925.348","CLASSIFICATION_TYPE":"U","RCS_SIZE":"LARGE","REF_FRAME":"TEME","MEAN_MOTION_DDOT":"0.0000000000000","MEAN_ANOMALY":"262.4799","TIME_SYSTEM":"UTC","OBJECT_ID":"2020-088AU","CENTER_NAME":"EARTH","COUNTRY_CODE":"US","REV_AT_EPOCH":"10523","RA_OF_ASC_NODE":"87.8510","EPOCH":"2022-10-16T18:23:44.058624","ARG_OF_PERICENTER":"97.6341","BSTAR":"0.00004576400000","INCLINATION":"53.0540","PERIOD":"95.592","GP_ID":"215345940","OBJECT_NAME":"STARLINK-1879","MEAN_MOTION":"15.06400232","MEAN_MOTION_DOT":"0.00000400","LAUNCH_DATE":"2020-11-25","DECAY_DATE":null,"TLE_LINE2":"2 47164  53.0540  87.8510 0001325  97.6341 262.4799 15.06400232105234","EPHEMERIS_TYPE":"0","PERIAPSIS":"546.295","OBJECT_TYPE":"PAYLOAD"},{"DECAY_DATE":null,"LAUNCH_DATE":"2020-11-25","MEAN_MOTION_DOT":"0.00000646","MEAN_MOTION":"15.06404616","OBJECT_TYPE":"PAYLOAD","PERIAPSIS":"546.208","EPHEMERIS_TYPE":"0","TLE_LINE2":"2 47165  53.0543 107.8185 0001431  94.2387 265.8765 15.06404616104958","BSTAR":"0.00006226900000","ARG_OF_PERICENTER":"94.2387","EPOCH":"2022-10-16T18:31:41.935296","RA_OF_ASC_NODE":"107.8185","GP_ID":"215346192","OBJECT_NAME":"STARLINK-1880","PERIOD":"95.592","INCLINATION":"53.0543","OBJECT_ID":"2020-088AV","TIME_SYSTEM":"UTC","MEAN_ANOMALY":"265.8765","MEAN_MOTION_DDOT":"0.0000000000000","RCS_SIZE":"LARGE","REF_FRAME":"TEME","REV_AT_EPOCH":"10495","COUNTRY_CODE":"US","CENTER_NAME":"EARTH","MEAN_ELEMENT_THEORY":"SGP4","ECCENTRICITY":"0.00014310","APOAPSIS":"548.190","CLASSIFICATION_TYPE":"U","SITE":"AFETR","SEMIMAJOR_AXIS":"6925.334","FILE":"3617955","TLE_LINE1":"1 47165U 20088AV  22289.77201314  .00000646  00000-0  62269-4 0  9994","NORAD_CAT_ID":"47165","ELEMENT_SET_NO":"999"},{"ELEMENT_SET_NO":"999","NORAD_CAT_ID":"47166","FILE":"3617955","TLE_LINE1":"1 47166U 20088AW  22289.58840906  .00044962  00000-0  66570-3 0  9997","SITE":"AFETR","SEMIMAJOR_AXIS":"6780.738","CLASSIFICATION_TYPE":"U","ECCENTRICITY":"0.00034200","APOAPSIS":"404.922","MEAN_ELEMENT_THEORY":"SGP4","CENTER_NAME":"EARTH","COUNTRY_CODE":"US","REV_AT_EPOCH":"10672","REF_FRAME":"TEME","RCS_SIZE":"LARGE","MEAN_ANOMALY":"358.8004","MEAN_MOTION_DDOT":"0.0000000000000","TIME_SYSTEM":"UTC","OBJECT_ID":"2020-088AW","INCLINATION":"53.0470","PERIOD":"92.614","OBJECT_NAME":"STARLINK-1881","GP_ID":"215346442","RA_OF_ASC_NODE":"341.7025","EPOCH":"2022-10-16T14:07:18.542784","ARG_OF_PERICENTER":"1.3014","BSTAR":"0.00066570000000","TLE_LINE2":"2 47166  53.0470 341.7025 0003420   1.3014 358.8004 15.54845676106720","EPHEMERIS_TYPE":"0","OBJECT_TYPE":"PAYLOAD","PERIAPSIS":"400.284","MEAN_MOTION":"15.54845676","MEAN_MOTION_DOT":"0.00044962","LAUNCH_DATE":"2020-11-25","DECAY_DATE":null},{"DECAY_DATE":null,"LAUNCH_DATE":"2020-11-25","MEAN_MOTION_DOT":"-0.00000719","MEAN_MOTION":"15.06390301","OBJECT_TYPE":"PAYLOAD","PERIAPSIS":"546.313","EPHEMERIS_TYPE":"0","TLE_LINE2":"2 47167  53.0540 107.5803 0001344  88.0383 272.0760 15.06390301105266","ARG_OF_PERICENTER":"88.0383","BSTAR":"-0.00002941400000","EPOCH":"2022-10-16T19:46:01.371072","RA_OF_ASC_NODE":"107.5803","GP_ID":"215312039","OBJECT_NAME":"STARLINK-1884","PERIOD":"95.593","INCLINATION":"53.0540","OBJECT_ID":"2020-088AX","TIME_SYSTEM":"UTC","MEAN_ANOMALY":"272.0760","MEAN_MOTION_DDOT":"0.0000000000000","REF_FRAME":"TEME","RCS_SIZE":"LARGE","REV_AT_EPOCH":"10526","COUNTRY_CODE":"US","CENTER_NAME":"EARTH","MEAN_ELEMENT_THEORY":"SGP4","ECCENTRICITY":"0.00013440","APOAPSIS":"548.174","CLASSIFICATION_TYPE":"U","SITE":"AFETR","SEMIMAJOR_AXIS":"6925.378","FILE":"3617406","TLE_LINE1":"1 47167U 20088AX  22289.82362698 -.00000719  00000-0 -29414-4 0  9993","ELEMENT_SET_NO":"999","NORAD_CAT_ID":"47167"},{"BSTAR":"-0.00001734100000","ARG_OF_PERICENTER":"101.9177","EPOCH":"2022-10-16T19:24:47.027232","RA_OF_ASC_NODE":"107.6573","OBJECT_NAME":"STARLINK-1887","GP_ID":"215345441","PERIOD":"95.593","INCLINATION":"53.0550","DECAY_DATE":null,"LAUNCH_DATE":"2020-11-25","MEAN_MOTION_DOT":"-0.00000540","MEAN_MOTION":"15.06391664","OBJECT_TYPE":"PAYLOAD","PERIAPSIS":"546.290","EPHEMERIS_TYPE":"0","TLE_LINE2":"2 47170  53.0550 107.6573 0001371 101.9177 258.1965 15.06391664104963","MEAN_ELEMENT_THEORY":"SGP4","ECCENTRICITY":"0.00013710","APOAPSIS":"548.189","CLASSIFICATION_TYPE":"U","SITE":"AFETR","SEMIMAJOR_AXIS":"6925.374","TLE_LINE1":"1 47170U 20088BA  22289.80887763 -.00000540  00000-0 -17341-4 0  9998","FILE":"3617955","ELEMENT_SET_NO":"999","NORAD_CAT_ID":"47170","OBJECT_ID":"2020-088BA","TIME_SYSTEM":"UTC","MEAN_MOTION_DDOT":"0.0000000000000","MEAN_ANOMALY":"258.1965","REF_FRAME":"TEME","RCS_SIZE":"LARGE","REV_AT_EPOCH":"10496","COUNTRY_CODE":"US","CENTER_NAME":"EARTH"},{"TLE_LINE1":"1 47171U 20088BB  22289.69552893 -.00000121  00000-0  10780-4 0  9993","FILE":"3617955","NORAD_CAT_ID":"47171","ELEMENT_SET_NO":"999","CLASSIFICATION_TYPE":"U","SEMIMAJOR_AXIS":"6925.346","SITE":"AFETR","APOAPSIS":"548.080","ECCENTRICITY":"0.00012550","MEAN_ELEMENT_THEORY":"SGP4","CENTER_NAME":"EARTH","REV_AT_EPOCH":"10508","COUNTRY_CODE":"US","MEAN_MOTION_DDOT":"0.0000000000000","MEAN_ANOMALY":"266.7801","RCS_SIZE":"LARGE","REF_FRAME":"TEME","OBJECT_ID":"2020-088BB","TIME_SYSTEM":"UTC","INCLINATION":"53.0541","GP_ID":"215346692","OBJECT_NAME":"STARLINK-1888","PERIOD":"95.592","RA_OF_ASC_NODE":"98.1623","BSTAR":"0.00001078000000","ARG_OF_PERICENTER":"93.3332","EPOCH":"2022-10-16T16:41:33.699552","TLE_LINE2":"2 47171  53.0541  98.1623 0001255  93.3332 266.7801 15.06400805105088","PERIAPSIS":"546.342","OBJECT_TYPE":"PAYLOAD","EPHEMERIS_TYPE":"0","MEAN_MOTION_DOT":"-0.00000121","MEAN_MOTION":"15.06400805","DECAY_DATE":null,"LAUNCH_DATE":"2020-11-25"}];
